{"type": "FeatureCollection", "name": "synthetic_admin2",
 "crs": {"type": "name", "properties": {"name": "urn:ogc:def:crs:OGC:1.3:CRS84"}},
 "features": [
  {"type": "Feature", "properties": {"adm2_pcode": "XX101", "adm2_name": "Synthetic A", "adm1_pcode": "XX1", "adm1_name": "Synthetic Region One"}, "geometry": {"type": "Polygon", "coordinates": [[[10.0, 20.0], [11.0, 20.0], [11.01, 20.125], [10.99, 20.25], [11.01, 20.375], [10.99, 20.5], [11.01, 20.625], [10.99, 20.75], [11.01, 20.875], [11.0, 21.0], [10.875, 21.01], [10.75, 20.99], [10.625, 21.01], [10.5, 20.99], [10.375, 21.01], [10.25, 20.99], [10.125, 21.01], [10.0, 21.0], [10.0, 20.0]]]}},
  {"type": "Feature", "properties": {"adm2_pcode": "XX102", "adm2_name": "Synthetic B", "adm1_pcode": "XX1", "adm1_name": "Synthetic Region One"}, "geometry": {"type": "Polygon", "coordinates": [[[11.0, 20.0], [12.0, 20.0], [12.01, 20.125], [11.99, 20.25], [12.01, 20.375], [11.99, 20.5], [12.01, 20.625], [11.99, 20.75], [12.01, 20.875], [12.0, 21.0], [11.875, 21.01], [11.75, 20.99], [11.625, 21.01], [11.5, 20.99], [11.375, 21.01], [11.25, 20.99], [11.125, 21.01], [11.0, 21.0], [11.01, 20.875], [10.99, 20.75], [11.01, 20.625], [10.99, 20.5], [11.01, 20.375], [10.99, 20.25], [11.01, 20.125], [11.0, 20.0]]]}},
  {"type": "Feature", "properties": {"adm2_pcode": "XX103", "adm2_name": "Synthetic C", "adm1_pcode": "XX1", "adm1_name": "Synthetic Region One"}, "geometry": {"type": "Polygon", "coordinates": [[[12.0, 20.0], [13.0, 20.0], [13.0, 21.0], [12.875, 21.01], [12.75, 20.99], [12.625, 21.01], [12.5, 20.99], [12.375, 21.01], [12.25, 20.99], [12.125, 21.01], [12.0, 21.0], [12.01, 20.875], [11.99, 20.75], [12.01, 20.625], [11.99, 20.5], [12.01, 20.375], [11.99, 20.25], [12.01, 20.125], [12.0, 20.0]]]}},
  {"type": "Feature", "properties": {"adm2_pcode": "XX104", "adm2_name": "Synthetic D", "adm1_pcode": "XX1", "adm1_name": "Synthetic Region One"}, "geometry": {"type": "Polygon", "coordinates": [[[10.0, 21.0], [10.125, 21.01], [10.25, 20.99], [10.375, 21.01], [10.5, 20.99], [10.625, 21.01], [10.75, 20.99], [10.875, 21.01], [11.0, 21.0], [11.01, 21.125], [10.99, 21.25], [11.01, 21.375], [10.99, 21.5], [11.01, 21.625], [10.99, 21.75], [11.01, 21.875], [11.0, 22.0], [10.0, 22.0], [10.0, 21.0]]]}},
  {"type": "Feature", "properties": {"adm2_pcode": "XX105", "adm2_name": "Synthetic E", "adm1_pcode": "XX1", "adm1_name": "Synthetic Region One"}, "geometry": {"type": "Polygon", "coordinates": [[[11.0, 21.0], [11.125, 21.01], [11.25, 20.99], [11.375, 21.01], [11.5, 20.99], [11.625, 21.01], [11.75, 20.99], [11.875, 21.01], [12.0, 21.0], [12.01, 21.125], [11.99, 21.25], [12.01, 21.375], [11.99, 21.5], [12.01, 21.625], [11.99, 21.75], [12.01, 21.875], [12.0, 22.0], [11.0, 22.0], [11.01, 21.875], [10.99, 21.75], [11.01, 21.625], [10.99, 21.5], [11.01, 21.375], [10.99, 21.25], [11.01, 21.125], [11.0, 21.0]]]}},
  {"type": "Feature", "properties": {"adm2_pcode": "XX106", "adm2_name": "Synthetic F", "adm1_pcode": "XX1", "adm1_name": "Synthetic Region One"}, "geometry": {"type": "Polygon", "coordinates": [[[12.0, 21.0], [12.125, 21.01], [12.25, 20.99], [12.375, 21.01], [12.5, 20.99], [12.625, 21.01], [12.75, 20.99], [12.875, 21.01], [13.0, 21.0], [13.0, 22.0], [12.0, 22.0], [12.01, 21.875], [11.99, 21.75], [12.01, 21.625], [11.99, 21.5], [12.01, 21.375], [11.99, 21.25], [12.01, 21.125], [12.0, 21.0]]]}},
  {"type": "Feature", "properties": {"adm2_pcode": "XX201", "adm2_name": "Synthetic G", "adm1_pcode": "XX2", "adm1_name": "Synthetic Region Two"}, "geometry": {"type": "Polygon", "coordinates": [[[13.0, 20.0], [14.0, 20.0], [14.0, 22.0], [13.0, 22.0], [13.0, 21.0], [13.0, 20.0]]]}}
 ]}
