{"type": "FeatureCollection", "name": "synthetic_admin2_gap",
 "crs": {"type": "name", "properties": {"name": "urn:ogc:def:crs:OGC:1.3:CRS84"}},
 "features": [
  {"type": "Feature", "properties": {"adm2_pcode": "XX101", "adm2_name": "Synthetic A", "adm1_pcode": "XX1", "adm1_name": "Synthetic Region One"}, "geometry": {"type": "Polygon", "coordinates": [[[10.0, 20.0], [11.0, 20.0], [11.0, 21.0], [10.0, 21.0], [10.0, 20.0]]]}},
  {"type": "Feature", "properties": {"adm2_pcode": "XX102", "adm2_name": "Synthetic B", "adm1_pcode": "XX1", "adm1_name": "Synthetic Region One"}, "geometry": {"type": "Polygon", "coordinates": [[[11.0002, 20.0], [12.0, 20.0], [12.0, 21.0], [11.0002, 21.0], [11.0002, 20.0]]]}},
  {"type": "Feature", "properties": {"adm2_pcode": "XX103", "adm2_name": "Synthetic C", "adm1_pcode": "XX1", "adm1_name": "Synthetic Region One"}, "geometry": {"type": "Polygon", "coordinates": [[[12.0, 20.0], [13.0, 20.0], [13.0, 21.0], [12.0, 21.0], [12.0, 20.0]]]}}
 ]}
